EYESAT-1 (AO-27)        
1 22825U 93061C   18032.48200041 -.00000014  00000-0  12251-4 0  9992
2 22825  98.8456   6.2644 0008940  28.9119 331.2556 14.30020707269909
CUTE-1 (CO-55)          
1 27844U 03031E   18032.58942891  .00000047  00000-0  40727-4 0  9997
2 27844  98.6888  43.2340 0010524  48.5370 311.6710 14.22091975756882
CUBESAT XI-IV (CO-57)   
1 27848U 03031J   18032.58152564  .00000026  00000-0  31895-4 0  9994
2 27848  98.6977  43.5769 0010559  57.7452 302.4747 14.21698964756769
CUBESAT XI 5            
1 28895U 05043F   18032.42708030  .00000112  00000-0  30353-4 0  9994
2 28895  97.8880 189.5408 0017821 135.8421 224.4208 14.63503995653788
CUTE-1.7+APD II (CO-65) 
1 32785U 08021C   18032.82462250  .00000183  00000-0  25490-4 0  9995
2 32785  97.5532  51.4270 0014400 123.9494 236.3094 14.88054625529048
COMPASS-1               
1 32787U 08021E   18032.73451526  .00000284  00000-0  32582-4 0  9993
2 32787  97.5389  61.5641 0014094  92.2354 268.0480 14.92899936529741
AAUSAT-II               
1 32788U 08021F   18032.55415059  .00000632  00000-0  63950-4 0  9995
2 32788  97.5359  64.6188 0013407  84.7081 275.5669 14.94205324529824
DELFI-C3 (DO-64)        
1 32789U 08021G   18032.69219976  .00001221  00000-0  88466-4 0  9995
2 32789  97.5314  90.8349 0013385  46.2101 314.0230 15.05718974531398
CANX-2                  
1 32790U 08021H   18032.51152171  .00000158  00000-0  22896-4 0  9994
2 32790  97.5529  49.3677 0015009 126.7288 233.5310 14.87764364528850
SEEDS II (CO-66)        
1 32791U 08021J   18032.52852855  .00000322  00000-0  38390-4 0  9991
2 32791  97.5457  56.1756 0014912 108.5603 251.7237 14.90457457529224
SWISSCUBE               
1 35932U 09051B   18032.38096645  .00000089  00000-0  31204-4 0  9993
2 35932  98.5238 180.4407 0006570 265.4316  94.6131 14.56116146443637
BEESAT                  
1 35933U 09051C   18032.34937924  .00000079  00000-0  28816-4 0  9998
2 35933  98.5277 181.8677 0004729 281.6445  78.4221 14.56224722443698
ITUPSAT 1               
1 35935U 09051E   18032.39637671  .00000079  00000-0  29273-4 0  9999
2 35935  98.5389 182.1702 0007039 274.8090  85.2302 14.55407131443540
TISAT 1                 
1 36799U 10035E   18032.86622922  .00000247  00000-0  31283-4 0  9998
2 36799  98.0858 165.6821 0011114 294.8520  65.1541 14.90682175409997
M-CUBED & EXP-1 PRIME   
1 37855U 11061F   18032.58306233  .00001063  00000-0  62469-4 0  9992
2 37855 101.7241  25.7252 0177812 123.4163 238.4196 15.04016480340790
HORYU 2                 
1 38340U 12025D   18032.58387846  .00000173  00000-0  33520-4 0  9999
2 38340  98.3743  49.5912 0010386 283.9334  76.0718 14.75492374296703
STRAND-1                
1 39090U 13009E   18032.56341192  .00000037  00000-0  28286-4 0  9999
2 39090  98.5330 240.6036 0008937 346.8485  13.2466 14.35009049258379
BRITE-AUSTRIA           
1 39091U 13009F   18032.56875453 -.00000005  00000-0  13486-4 0  9994
2 39091  98.5297 239.9251 0010355 353.8271   6.2785 14.35058358258395
UNIBRITE                
1 39092U 13009G   18032.51844698  .00000000  00000-0  15447-4 0  9990
2 39092  98.5308 239.5466 0009115 348.0740  12.0228 14.34932504258358
AIST-2                  
1 39133U 13015D   18032.84694705  .00000034  00000-0  15091-4 0  9993
2 39133  64.8732 279.6602 0033394 243.6772 116.0917 15.04479695262854
SOMP                    
1 39134U 13015E   18032.57305346  .00001225  00000-0  67840-4 0  9996
2 39134  64.8630 205.4653 0027440 228.6700 131.2066 15.18765501263926
BEESAT-3                
1 39135U 13015F   18032.57364789  .00000928  00000-0  57308-4 0  9990
2 39135  64.8677 217.0863 0030855 250.7867 108.9919 15.16351517263692
BEESAT-2                
1 39136U 13015G   18032.62827777  .00000687  00000-0  45747-4 0  9994
2 39136  64.8683 219.3349 0029844 252.0320 107.7551 15.15835387263655
NEE-01 PEGASUS          
1 39151U 13018B   18032.26169322  .00000132  00000-0  24522-4 0  9992
2 39151  97.9773 127.3039 0017710  33.0757 327.1559 14.79847308257411
CUBEBUG-1 (CAPITAN BETO)
1 39153U 13018D   18032.78702474  .00000174  00000-0  29833-4 0  9998
2 39153  97.9803 128.8455 0017533  29.3247 330.8945 14.80333161257565
ESTCUBE 1               
1 39161U 13021C   18032.75981721  .00000129  00000-0  28412-4 0  9994
2 39161  98.0151 120.6514 0010832 125.5775 234.6441 14.72015682254529
POPACS 1                
1 39268U 13055D   18032.52947743  .00003219  00000-0  92607-4 0  9990
2 39268  81.0053 128.4607 0641447 265.8436  86.9241 14.33078478223546
POPACS 2                
1 39269U 13055E   18032.30350740  .00001457  00000-0  42799-4 0  9991
2 39269  81.0174 147.9066 0693906 316.5442  38.2975 14.21417676222619
POPACS 3                
1 39270U 13055F   18032.35832915  .00001457  00000-0  45491-4 0  9999
2 39270  81.0191 158.4803 0720996 348.1386  10.3542 14.14221872202458
ZACUBE-1 (TSHEPISOSAT)  
1 39417U 13066B   18032.57087530  .00000171  00000-0  28208-4 0  9992
2 39417  97.6032  68.3416 0057958 238.5194 121.0347 14.80868378226727
WNISAT-1                
1 39423U 13066H   18032.88356659  .00000112  00000-0  31225-4 0  9992
2 39423  97.7092   7.5606 0177272  80.1150 282.0017 14.52919750222584
TRITON-1                
1 39427U 13066M   18032.55781237  .00000140  00000-0  30570-4 0  9997
2 39427  97.6372  37.5155 0113527 334.6080  24.9572 14.67605346224492
GOMX 1                  
1 39430U 13066Q   18032.86051681  .00000227  00000-0  49855-4 0  9990
2 39430  97.6833  19.5983 0152618  38.1809 323.0086 14.59015274223427
BRITE-PL                
1 39431U 13066R   18032.85347052  .00000026  00000-0  15290-4 0  9993
2 39431  97.7396 355.6311 0203670 124.7882 237.2667 14.46904866221665
HUMSAT-D                
1 39433U 13066T   18032.61629490  .00000199  00000-0  25115-4 0  9996
2 39433  97.6235  93.6151 0031415 171.3161 188.8608 14.91734588227038
EAGLE 2                 
1 39436U 13066W   18032.60283948  .00053169  00000-0  72374-3 0  9995
2 39436  97.7120 157.8343 0005799 320.3488  39.7341 15.57381917230933
CUBEBUG-2 (LO-74)       
1 39440U 13066AA  18032.59106679  .00000157  00000-0  29224-4 0  9999
2 39440  97.6101  55.8261 0079129 275.9500  83.2696 14.75605873224726
NEE-02 KRYSAOR          
1 39441U 13066AB  18032.59543685  .00000104  00000-0  22232-4 0  9996
2 39441  97.6094  54.2072 0080547 280.5363  78.6780 14.74729935224633
FUNCUBE-1 (AO-73)       
1 39444U 13066AE  18032.63731429  .00000201  00000-0  31363-4 0  9992
2 39444  97.6044  69.7566 0057211 234.1083 125.4812 14.81632172225582
UWE-3                   
1 39446U 13066AG  18032.71064664  .00000157  00000-0  27890-4 0  9993
2 39446  97.6053  61.8522 0068878 257.2413 102.1095 14.78138633225105
BRITE-TORONTO           
1 40020U 14033L   18032.57534894  .00000052  00000-0  17658-4 0  9994
2 40020  97.8043 257.6249 0086668 317.6375  41.8159 14.66465062193708
DUCHIFAT-1              
1 40021U 14033M   18032.76319260  .00000335  00000-0  40474-4 0  9990
2 40021  97.9180 311.2390 0011549 265.3381  94.6518 14.90185492196787
FLOCK 1C-10             
1 40023U 14033P   18032.76750612 -.00000216  00000-0 -16878-4 0  9993
2 40023  97.9208 310.0215 0011674 273.3625  86.6304 14.89111885196666
NANOSATC-BR1            
1 40024U 14033Q   18032.73803710  .00000226  00000-0  29726-4 0  9994
2 40024  97.9124 309.7150 0010885 267.1804  92.8168 14.89466123196711
QB50P1                  
1 40025U 14033R   18032.70893196  .00000252  00000-0  33108-4 0  9997
2 40025  97.9093 308.3639 0011125 271.6552  88.3391 14.88627458196630
FLOCK 1C-7              
1 40026U 14033S   18032.73786062  .00001127  00000-0  12312-3 0  9999
2 40026  97.9234 311.0338 0010113 270.7395  89.2652 14.89861364196723
FLOCK 1C-1              
1 40027U 14033T   18032.72600368  .00000956  00000-0  10712-3 0  9994
2 40027  97.9224 310.2765 0011558 272.3793  87.6119 14.89177076196676
POPSAT-HIP-1            
1 40028U 14033U   18032.76127261  .00000208  00000-0  28463-4 0  9998
2 40028  97.9125 308.7611 0012228 271.7592  88.2223 14.88487653196626
FLOCK 1C-2              
1 40029U 14033V   18032.75106802 -.00000056  00000-0  14291-6 0  9994
2 40029  97.9206 310.1406 0012690 267.6573  92.3186 14.89214919196664
FLOCK 1C-4              
1 40031U 14033X   18032.65756273  .00000711  00000-0  81455-4 0  9990
2 40031  97.9200 309.9788 0012897 265.5360  94.4408 14.89040605196636
QB50P2                  
1 40032U 14033Y   18032.75792299  .00000224  00000-0  30378-4 0  9997
2 40032  97.9055 307.2794 0010481 266.1764  93.8254 14.88177137196581
FLOCK 1C-11             
1 40033U 14033Z   18032.69383323 -.00000192  00000-0 -13804-4 0  9996
2 40033  97.9238 311.9956 0010706 257.5067 102.4931 14.90422658196771
ANTELSAT                
1 40034U 14033AA  18032.63024570  .00000180  00000-0  34560-4 0  9994
2 40034  97.8306 274.0600 0057576 274.9027  84.5609 14.73855537194718
FLOCK 1C-9              
1 40035U 14033AB  18032.32922692  .00000803  00000-0  90811-4 0  9996
2 40035  97.9231 310.1863 0010886 258.9113 101.0767 14.89250953196610
FLOCK 1C-6              
1 40036U 14033AC  18032.40112773  .00000877  00000-0  98390-4 0  9998
2 40036  97.9260 310.5356 0010577 260.6452  99.3457 14.89358340196633
PERSEUS-M2              
1 40037U 14033AD  18032.70047549  .00000060  00000-0  13119-4 0  9990
2 40037  97.9057 305.1671 0013011 274.5393  85.4336 14.86319267196401
FLOCK 1C-5              
1 40038U 14033AE  18032.41186013  .00000530  00000-0  61864-4 0  9991
2 40038  97.9225 310.2976 0013088 261.3388  98.6322 14.89327701196637
PERSEUS-M1              
1 40039U 14033AF  18032.75835685  .00000059  00000-0  13030-4 0  9993
2 40039  97.9058 304.6664 0012843 270.4217  89.5526 14.85941658196367
FLOCK 1C-8              
1 40040U 14033AG  18032.77342497  .00000335  00000-0  39491-4 0  9997
2 40040  97.9279 313.5818 0011417 242.7220 117.2858 14.91283992196843
